SL-16 R/B               
1 24298U 96051B   26198.20040433  .00000151  00000+0  10848-3 0  9998
2 24298  70.7645 261.1336 0017930 295.5028  64.4236 14.12457307539937
ORBVIEW 2 (SEASTAR)     
1 24883U 97037A   26197.92077934  .00000084  00000+0  45436-4 0  9994
2 24883  98.8715   5.7679 0003046  57.5444 302.6034 14.35567236527016
SL-16 R/B               
1 25400U 98043G   26197.90125441  .00000001  00000+0  19552-4 0  9992
2 25400  98.8380 152.3188 0009941   6.6678 353.4632 14.26072900457400
SL-16 R/B               
1 25407U 98045B   26198.18403803 -.00000103  00000+0 -27882-4 0  9993
2 25407  71.0107 269.2461 0008076 203.5279 156.5476 14.16205011445430
ISS (ZARYA)             
1 25544U 98067A   26198.18571856  .00003640  00000+0  74136-4 0  9994
2 25544  51.6315 151.6351 0006784 305.3594  54.6760 15.49030061576408
CZ-4B R/B               
1 25732U 99025C   26198.04022433 -.00000001  00000+0  20305-4 0  9993
2 25732  98.6470 239.1252 0036547 334.3715  35.9973 14.18287902406503
OKEAN-O                 
1 25860U 99039A   26198.15323866  .00000258  00000+0  40488-4 0  9993
2 25860  97.9300 256.6046 0000870  91.1885 268.9427 14.80498658453549
SL-16 R/B               
1 25861U 99039B   26198.14722316  .00000226  00000+0  35343-4 0  9995
2 25861  97.9822 256.9223 0014458 191.9612 168.1260 14.81871856456032
DELTA 2 R/B             
1 25876U 99041E   26198.18662117  .00001033  00000+0  20487-3 0  9999
2 25876  51.7611 143.9391 0501424  10.6364 350.4718 14.12089871381323
HELIOS 1B               
1 25977U 99064A   26198.16910965  .00000610  00000+0  72684-4 0  9998
2 25977  98.1581 104.1735 0001812  52.1499 307.9880 14.88077720704513
TERRA                   
1 25994U 99068A   26198.14186242  .00000174  00000+0  44393-4 0  9993
2 25994  97.9440 246.4979 0003485 118.8743 261.9090 14.61124589413980
SL-16 R/B               
1 26070U 00006B   26197.38517398 -.00000075  00000+0 -13690-4 0  9996
2 26070  71.0002 187.2308 0017230 338.3421  21.6972 14.15837929366778
TITAN 4B R/B            
1 26474U 00047B   26198.12722661  .00001211  00000+0  80421-4 0  9990
2 26474  67.9873  36.2878 0045780 256.8436 102.7603 15.10338353412454
ENVISAT                 
1 27386U 02009A   26197.86158654  .00000017  00000+0  19309-4 0  9998
2 27386  98.3846 148.5207 0001325  82.9021 300.9180 14.39070925277755
IDEFIX & ARIANE 42P R/B 
1 27422U 02021B   26197.84424830  .00000083  00000+0  48209-4 0  9997
2 27422  98.5941 135.0068 0011997 161.6821 198.4797 14.31094156262492
AQUA                    
1 27424U 02022A   26198.23213147  .00000338  00000+0  76968-4 0  9997
2 27424  98.4298 168.1195 0001227 101.4578 317.4190 14.62130152287669
CZ-4B R/B               
1 27432U 02024C   26198.08101089 -.00000002  00000+0  22050-4 0  9994
2 27432  98.8684 250.7044 0050371  16.6655   1.5139 14.14568410247534
MIDORI II (ADEOS-II)    
1 27597U 02056A   26197.88858017  .00000089  00000+0  52886-4 0  9992
2 27597  98.7895 157.4039 0001404  39.0518 321.0765 14.29363496228757
H-2A R/B                
1 27601U 02056E   26197.87889850  .00000117  00000+0  55436-4 0  9992
2 27601  98.3329 153.4738 0070970 135.9578 283.5455 14.33834447232622
CZ-4B R/B               
1 28059U 03049C   26197.86833950  .00000117  00000+0  38491-4 0  9994
2 28059  98.6910 197.8982 0047774 196.0934 163.8747 14.55116697205383
CZ-2C R/B               
1 28222U 04012C   26197.82281370  .00112094  00000+0  46138-3 0  9990
2 28222  97.7045 277.0808 0011035 186.1120 174.0017 15.85560346224585
SL-16 R/B               
1 28353U 04021B   26197.57744234 -.00000064  00000+0 -82895-5 0  9997
2 28353  71.0029 322.0077 0006264 223.9423 136.1202 14.14616508141069
CZ-4B R/B               
1 28415U 04035C   26198.07036125  .00004035  00000+0  13556-3 0  9996
2 28415  97.3352 230.8130 0029378 225.6757 134.2076 15.31007126199694
CZ-2C R/B               
1 28480U 04046B   26198.13146946  .00000062  00000+0  37678-4 0  9998
2 28480  98.1913 105.0364 0140237 131.7007 229.6273 14.27033575126962
ARIANE 5 R/B            
1 28499U 04049H   26197.90300892  .00000205  00000+0  29611-4 0  9994
2 28499  98.2743  11.3089 0082580 292.6645  66.5852 14.85479846164971
CZ-2D R/B               
1 28738U 05024B   26197.51522388  .00044535  00000+0  32896-3 0  9999
2 28738  97.3466 218.4796 0002644 188.6063 171.5155 15.72867505159949
ALOS (DAICHI)           
1 28931U 06002A   26197.90271803  .00000471  00000+0  86697-4 0  9997
2 28931  98.1339 153.3812 0000851 103.8091 256.3209 14.70103769 92463
H-2A R/B                
1 28932U 06002B   26198.04179147  .00004914  00000+0  23452-3 0  9997
2 28932  98.2598 356.5850 0050909 159.7913 200.5350 15.18463958114053
RESURS-DK 1             
1 29228U 06021A   26197.45020316  .00000852  00000+0  53811-4 0  9994
2 29228  69.9306 263.7965 0007178 269.6714  90.3630 15.13321208107009
CZ-4B R/B               
1 29507U 06046C   26198.11592359  .00002178  00000+0  10917-3 0  9998
2 29507  97.5434 242.6314 0032768 175.5082 184.6452 15.17990456 79679
CZ-2C R/B               
1 31114U 07010B   26198.21184330  .00000041  00000+0  37913-4 0  9997
2 31114  98.4121 305.0976 0057750 277.7894  81.6729 14.20282135998103
