OBJECT_NAME,OBJECT_ID,EPOCH,MEAN_MOTION,ECCENTRICITY,INCLINATION,RA_OF_ASC_NODE,ARG_OF_PERICENTER,MEAN_ANOMALY,EPHEMERIS_TYPE,CLASSIFICATION_TYPE,NORAD_CAT_ID,ELEMENT_SET_NO,REV_AT_EPOCH,BSTAR,MEAN_MOTION_DOT,MEAN_MOTION_DDOT
SL-16 R/B,1996-051B,2026-07-17T04:48:34.934112,14.12457307,.001793,70.7645,261.1336,295.5028,64.4236,0,U,24298,999,53993,.10848E-3,.151E-5,0
ORBVIEW 2 (SEASTAR),1997-037A,2026-07-16T22:05:55.334976,14.35567236,.0003046,98.8715,5.7679,57.5444,302.6034,0,U,24883,999,52701,.45436E-4,.84E-6,0
SL-16 R/B,1998-043G,2026-07-16T21:37:48.381024,14.26072900,.0009941,98.8380,152.3188,6.6678,353.4632,0,U,25400,999,45740,.19552E-4,.1E-7,0
SL-16 R/B,1998-045B,2026-07-17T04:25:00.885792,14.16205011,.0008076,71.0107,269.2461,203.5279,156.5476,0,U,25407,999,44543,-.27882E-4,-.103E-5,0
ISS (ZARYA),1998-067A,2026-07-17T04:27:26.083584,15.49030061,.0006784,51.6315,151.6351,305.3594,54.6760,0,U,25544,999,57640,.74136E-4,.364E-4,0
CZ-4B R/B,1999-025C,2026-07-17T00:57:55.382112,14.18287902,.0036547,98.6470,239.1252,334.3715,35.9973,0,U,25732,999,40650,.20305E-4,-.1E-7,0
OKEAN-O,1999-039A,2026-07-17T03:40:39.820224,14.80498658,.000087,97.9300,256.6046,91.1885,268.9427,0,U,25860,999,45354,.40488E-4,.258E-5,0
SL-16 R/B,1999-039B,2026-07-17T03:32:00.081024,14.81871856,.0014458,97.9822,256.9223,191.9612,168.1260,0,U,25861,999,45603,.35343E-4,.226E-5,0
DELTA 2 R/B,1999-041E,2026-07-17T04:28:44.069088,14.12089871,.0501424,51.7611,143.9391,10.6364,350.4718,0,U,25876,999,38132,.20487E-3,.1033E-4,0
HELIOS 1B,1999-064A,2026-07-17T04:03:31.073760,14.88077720,.0001812,98.1581,104.1735,52.1499,307.9880,0,U,25977,999,70451,.72684E-4,.61E-5,0
TERRA,1999-068A,2026-07-17T03:24:16.913088,14.61124589,.0003485,97.9440,246.4979,118.8743,261.9090,0,U,25994,999,41398,.44393E-4,.174E-5,0
SL-16 R/B,2000-006B,2026-07-16T09:14:39.031872,14.15837929,.001723,71.0002,187.2308,338.3421,21.6972,0,U,26070,999,36677,-.1369E-4,-.75E-6,0
TITAN 4B R/B,2000-047B,2026-07-17T03:03:12.379104,15.10338353,.004578,67.9873,36.2878,256.8436,102.7603,0,U,26474,999,41245,.80421E-4,.1211E-4,0
ENVISAT,2002-009A,2026-07-16T20:40:41.077056,14.39070925,.0001325,98.3846,148.5207,82.9021,300.9180,0,U,27386,999,27775,.19309E-4,.17E-6,0
IDEFIX & ARIANE 42P R/B,2002-021B,2026-07-16T20:15:43.053120,14.31094156,.0011997,98.5941,135.0068,161.6821,198.4797,0,U,27422,999,26249,.48209E-4,.83E-6,0
AQUA,2002-022A,2026-07-17T05:34:16.159008,14.62130152,.0001227,98.4298,168.1195,101.4578,317.4190,0,U,27424,999,28766,.76968E-4,.338E-5,0
CZ-4B R/B,2002-024C,2026-07-17T01:56:39.340896,14.14568410,.0050371,98.8684,250.7044,16.6655,1.5139,0,U,27432,999,24753,.2205E-4,-.2E-7,0
MIDORI II (ADEOS-II),2002-056A,2026-07-16T21:19:33.326688,14.29363496,.0001404,98.7895,157.4039,39.0518,321.0765,0,U,27597,999,22875,.52886E-4,.89E-6,0
H-2A R/B,2002-056E,2026-07-16T21:05:36.830400,14.33834447,.007097,98.3329,153.4738,135.9578,283.5455,0,U,27601,999,23262,.55436E-4,.117E-5,0
CZ-4B R/B,2003-049C,2026-07-16T20:50:24.532800,14.55116697,.0047774,98.6910,197.8982,196.0934,163.8747,0,U,28059,999,20538,.38491E-4,.117E-5,0
CZ-2C R/B,2004-012C,2026-07-16T19:44:51.103680,15.85560346,.0011035,97.7045,277.0808,186.1120,174.0017,0,U,28222,999,22458,.46138E-3,.112094E-2,0
SL-16 R/B,2004-021B,2026-07-16T13:51:31.018176,14.14616508,.0006264,71.0029,322.0077,223.9423,136.1202,0,U,28353,999,14106,-.82895E-5,-.64E-6,0
CZ-4B R/B,2004-035C,2026-07-17T01:41:19.212000,15.31007126,.0029378,97.3352,230.8130,225.6757,134.2076,0,U,28415,999,19969,.13556E-3,.4035E-4,0
CZ-2C R/B,2004-046B,2026-07-17T03:09:18.961344,14.27033575,.0140237,98.1913,105.0364,131.7007,229.6273,0,U,28480,999,12696,.37678E-4,.62E-6,0
ARIANE 5 R/B,2004-049H,2026-07-16T21:40:19.970688,14.85479846,.008258,98.2743,11.3089,292.6645,66.5852,0,U,28499,999,16497,.29611E-4,.205E-5,0
CZ-2D R/B,2005-024B,2026-07-16T12:21:55.343232,15.72867505,.0002644,97.3466,218.4796,188.6063,171.5155,0,U,28738,999,15994,.32896E-3,.44535E-3,0
ALOS (DAICHI),2006-002A,2026-07-16T21:39:54.837792,14.70103769,.0000851,98.1339,153.3812,103.8091,256.3209,0,U,28931,999,9246,.86697E-4,.471E-5,0
H-2A R/B,2006-002B,2026-07-17T01:00:10.783008,15.18463958,.0050909,98.2598,356.5850,159.7913,200.5350,0,U,28932,999,11405,.23452E-3,.4914E-4,0
RESURS-DK 1,2006-021A,2026-07-16T10:48:17.553024,15.13321208,.0007178,69.9306,263.7965,269.6714,90.3630,0,U,29228,999,10700,.53811E-4,.852E-5,0
CZ-4B R/B,2006-046C,2026-07-17T02:46:55.798176,15.17990456,.0032768,97.5434,242.6314,175.5082,184.6452,0,U,29507,999,7967,.10917E-3,.2178E-4,0
CZ-2C R/B,2007-010B,2026-07-17T05:05:03.261120,14.20282135,.005775,98.4121,305.0976,277.7894,81.6729,0,U,31114,999,99810,.37913E-4,.41E-6,0
